{"type": "FeatureCollection", "features": [ {"type": "Feature", "properties": {"norad_id": 66535, "name": "STARLINK-35514", "group": "last-30-days", "lat": -20.75161765735514, "lon": 8.6799520795543, "alt_km": 414.4371493295821, "timestamp": "2025-12-16T08:59:41.906477+00:00", "meta": {"OBJECT_NAME": "STARLINK-35514", "OBJECT_ID": "2025-265V", "EPOCH": "2025-12-15T13:01:57.099072", "MEAN_MOTION": 15.50545822, "ECCENTRICITY": 0.0005009, "INCLINATION": 43.0013, "RA_OF_ASC_NODE": 37.5374, "ARG_OF_PERICENTER": 275.3717, "MEAN_ANOMALY": 84.6572, "EPHEMERIS_TYPE": 0, "CLASSIFICATION_TYPE": "U", "NORAD_CAT_ID": 66535, "ELEMENT_SET_NO": 999, "REV_AT_EPOCH": 419, "BSTAR": 0.0015333409, "MEAN_MOTION_DOT": 0.00090585, "MEAN_MOTION_DDOT": 0}, "tle": {"line1": "1 66535U 25265V   25349.54302198  .00090585  00000+0  15333-2 0  9993", "line2": "2 66535  43.0013  37.5374 0005009 275.3717  84.6572 15.50545822  4196"}}, "geometry": {"type": "Point", "coordinates": [8.6799520795543, -20.75161765735514]}}, {"type": "Feature", "properties": {"norad_id": 66536, "name": "STARLINK-35640", "group": "last-30-days", "lat": -19.46664013365925, "lon": 10.374277232892114, "alt_km": 416.0433402202525, "timestamp": "2025-12-16T08:59:41.906490+00:00", "meta": {"OBJECT_NAME": "STARLINK-35640", "OBJECT_ID": "2025-265W", "EPOCH": "2025-12-15T11:28:41.673504", "MEAN_MOTION": 15.50603447, "ECCENTRICITY": 0.00019434, "INCLINATION": 43.0009, "RA_OF_ASC_NODE": 37.9105, "ARG_OF_PERICENTER": 260.1885, "MEAN_ANOMALY": 99.8756, "EPHEMERIS_TYPE": 0, "CLASSIFICATION_TYPE": "U", "NORAD_CAT_ID": 66536, "ELEMENT_SET_NO": 999, "REV_AT_EPOCH": 418, "BSTAR": 0.00084769573, "MEAN_MOTION_DOT": 0.0004975, "MEAN_MOTION_DDOT": 0}, "tle": {"line1": "1 66536U 25265W   25349.47826011  .00049750  00000+0  84770-3 0  9991", "line2": "2 66536  43.0009  37.9105 0001943 260.1885  99.8756 15.50603447  4188"}}, "geometry": {"type": "Point", "coordinates": [10.374277232892114, -19.46664013365925]}}, {"type": "Feature", "properties": {"norad_id": 66537, "name": "STARLINK-35582", "group": "last-30-days", "lat": -18.23085546798698, "lon": 11.961086919953265, "alt_km": 415.8126578614492, "timestamp": "2025-12-16T08:59:41.906501+00:00", "meta": {"OBJECT_NAME": "STARLINK-35582", "OBJECT_ID": "2025-265X", "EPOCH": "2025-12-15T11:28:12.046944", "MEAN_MOTION": 15.5060388, "ECCENTRICITY": 0.00018226, "INCLINATION": 43.0014, "RA_OF_ASC_NODE": 37.9075, "ARG_OF_PERICENTER": 267.2354, "MEAN_ANOMALY": 92.8298, "EPHEMERIS_TYPE": 0, "CLASSIFICATION_TYPE": "U", "NORAD_CAT_ID": 66537, "ELEMENT_SET_NO": 999, "REV_AT_EPOCH": 418, "BSTAR": 0.001040946, "MEAN_MOTION_DOT": 0.0006126, "MEAN_MOTION_DDOT": 0}, "tle": {"line1": "1 66537U 25265X   25349.47791721  .00061260  00000+0  10409-2 0  9998", "line2": "2 66537  43.0014  37.9075 0001822 267.2354  92.8298 15.50603880  4181"}}, "geometry": {"type": "Point", "coordinates": [11.961086919953265, -18.23085546798698]}}, {"type": "Feature", "properties": {"norad_id": 66538, "name": "STARLINK-35577", "group": "last-30-days", "lat": -16.983592850467275, "lon": 13.523754475457887, "alt_km": 415.4680736502314, "timestamp": "2025-12-16T08:59:41.906511+00:00", "meta": {"OBJECT_NAME": "STARLINK-35577", "OBJECT_ID": "2025-265Y", "EPOCH": "2025-12-15T11:27:42.391872", "MEAN_MOTION": 15.50614446, "ECCENTRICITY": 0.00019895, "INCLINATION": 43.0014, "RA_OF_ASC_NODE": 37.9052, "ARG_OF_PERICENTER": 276.9417, "MEAN_ANOMALY": 83.1217, "EPHEMERIS_TYPE": 0, "CLASSIFICATION_TYPE": "U", "NORAD_CAT_ID": 66538, "ELEMENT_SET_NO": 999, "REV_AT_EPOCH": 418, "BSTAR": 0.0010187959, "MEAN_MOTION_DOT": 0.00059963, "MEAN_MOTION_DDOT": 0}, "tle": {"line1": "1 66538U 25265Y   25349.47757398  .00059963  00000+0  10188-2 0  9992", "line2": "2 66538  43.0014  37.9052 0001989 276.9417  83.1217 15.50614446  4182"}}, "geometry": {"type": "Point", "coordinates": [13.523754475457887, -16.983592850467275]}}, {"type": "Feature", "properties": {"norad_id": 66539, "name": "STARLINK-35697", "group": "last-30-days", "lat": -15.779114982086876, "lon": 14.999463728950621, "alt_km": 415.62829002424496, "timestamp": "2025-12-16T08:59:41.906521+00:00", "meta": {"OBJECT_NAME": "STARLINK-35697", "OBJECT_ID": "2025-265Z", "EPOCH": "2025-12-15T12:59:58.172928", "MEAN_MOTION": 15.50613048, "ECCENTRICITY": 0.00018226, "INCLINATION": 43.0013, "RA_OF_ASC_NODE": 37.5261, "ARG_OF_PERICENTER": 271.4365, "MEAN_ANOMALY": 88.6287, "EPHEMERIS_TYPE": 0, "CLASSIFICATION_TYPE": "U", "NORAD_CAT_ID": 66539, "ELEMENT_SET_NO": 999, "REV_AT_EPOCH": 419, "BSTAR": 0.0008740615, "MEAN_MOTION_DOT": 0.00051335, "MEAN_MOTION_DDOT": 0}, "tle": {"line1": "1 66539U 25265Z   25349.54164552  .00051335  00000+0  87406-3 0  9998", "line2": "2 66539  43.0013  37.5261 0001822 271.4365  88.6287 15.50613048  4193"}}, "geometry": {"type": "Point", "coordinates": [14.999463728950621, -15.779114982086876]}}, {"type": "Feature", "properties": {"norad_id": 66540, "name": "STARLINK-35818", "group": "last-30-days", "lat": -14.561838393354535, "lon": 16.458801864913507, "alt_km": 415.7449278397844, "timestamp": "2025-12-16T08:59:41.906534+00:00", "meta": {"OBJECT_NAME": "STARLINK-35818", "OBJECT_ID": "2025-265AA", "EPOCH": "2025-12-15T12:59:28.632768", "MEAN_MOTION": 15.50589917, "ECCENTRICITY": 0.00015654, "INCLINATION": 43.0004, "RA_OF_ASC_NODE": 37.5221, "ARG_OF_PERICENTER": 265.6235, "MEAN_ANOMALY": 94.4447, "EPHEMERIS_TYPE": 0, "CLASSIFICATION_TYPE": "U", "NORAD_CAT_ID": 66540, "ELEMENT_SET_NO": 999, "REV_AT_EPOCH": 419, "BSTAR": 0.0010358677, "MEAN_MOTION_DOT": 0.00060926, "MEAN_MOTION_DDOT": 0}, "tle": {"line1": "1 66540U 25265AA  25349.54130362  .00060926  00000+0  10359-2 0  9990", "line2": "2 66540  43.0004  37.5221 0001565 265.6235  94.4447 15.50589917  4196"}}, "geometry": {"type": "Point", "coordinates": [16.458801864913507, -14.561838393354535]}}, {"type": "Feature", "properties": {"norad_id": 66541, "name": "STARLINK-35796", "group": "last-30-days", "lat": -39.23649440613449, "lon": -85.93136893086562, "alt_km": 446.6877897946406, "timestamp": "2025-12-16T08:59:41.906545+00:00", "meta": {"OBJECT_NAME": "STARLINK-35796", "OBJECT_ID": "2025-265AB", "EPOCH": "2025-12-15T22:00:01.999584", "MEAN_MOTION": 15.4069203, "ECCENTRICITY": 0.00010521, "INCLINATION": 43.0011, "RA_OF_ASC_NODE": 35.5065, "ARG_OF_PERICENTER": 285.1597, "MEAN_ANOMALY": 299.0224, "EPHEMERIS_TYPE": 0, "CLASSIFICATION_TYPE": "U", "NORAD_CAT_ID": 66541, "ELEMENT_SET_NO": 999, "REV_AT_EPOCH": 550, "BSTAR": 0.00040668199, "MEAN_MOTION_DOT": 0.00016717, "MEAN_MOTION_DDOT": 0}, "tle": {"line1": "1 66541U 25265AB  25349.91668981  .00016717  00000+0  40668-3 0  9991", "line2": "2 66541  43.0011  35.5065 0001052 285.1597 299.0224 15.40692030  5500"}}, "geometry": {"type": "Point", "coordinates": [-85.93136893086562, -39.23649440613449]}}, {"type": "Feature", "properties": {"norad_id": 66542, "name": "STARLINK-35833", "group": "last-30-days", "lat": -37.10857696559795, "lon": -21.527597990151673, "alt_km": 447.71810792324777, "timestamp": "2025-12-16T08:59:41.906556+00:00", "meta": {"OBJECT_NAME": "STARLINK-35833", "OBJECT_ID": "2025-265AC", "EPOCH": "2025-12-15T22:00:01.999584", "MEAN_MOTION": 15.42038287, "ECCENTRICITY": 8.424e-05, "INCLINATION": 43.0012, "RA_OF_ASC_NODE": 35.3886, "ARG_OF_PERICENTER": 284.514, "MEAN_ANOMALY": 348.6778, "EPHEMERIS_TYPE": 0, "CLASSIFICATION_TYPE": "U", "NORAD_CAT_ID": 66542, "ELEMENT_SET_NO": 999, "REV_AT_EPOCH": 550, "BSTAR": -0.046148894, "MEAN_MOTION_DOT": -0.01815668, "MEAN_MOTION_DDOT": 0}, "tle": {"line1": "1 66542U 25265AC  25349.91668981 -.01815668  00000+0 -46149-1 0  9995", "line2": "2 66542  43.0012  35.3886 0000842 284.5140 348.6778 15.42038287  5509"}}, "geometry": {"type": "Point", "coordinates": [-21.527597990151673, -37.10857696559795]}}, {"type": "Feature", "properties": {"norad_id": 66543, "name": "STARLINK-35315", "group": "last-30-days", "lat": -11.174605656494464, "lon": 20.39584175981402, "alt_km": 415.5301318874717, "timestamp": "2025-12-16T08:59:41.906568+00:00", "meta": {"OBJECT_NAME": "STARLINK-35315", "OBJECT_ID": "2025-265AD", "EPOCH": "2025-12-15T20:41:50.592768", "MEAN_MOTION": 15.50477986, "ECCENTRICITY": 0.00021484, "INCLINATION": 43.002, "RA_OF_ASC_NODE": 35.6314, "ARG_OF_PERICENTER": 30.7647, "MEAN_ANOMALY": 329.3339, "EPHEMERIS_TYPE": 0, "CLASSIFICATION_TYPE": "U", "NORAD_CAT_ID": 66543, "ELEMENT_SET_NO": 999, "REV_AT_EPOCH": 424, "BSTAR": -0.00014518767, "MEAN_MOTION_DOT": -8.82e-05, "MEAN_MOTION_DDOT": 0}, "tle": {"line1": "1 66543U 25265AD  25349.86239112 -.00008820  00000+0 -14519-3 0  9991", "line2": "2 66543  43.0020  35.6314 0002148  30.7647 329.3339 15.50477986  4243"}}, "geometry": {"type": "Point", "coordinates": [20.39584175981402, -11.174605656494464]}}, {"type": "Feature", "properties": {"norad_id": 66544, "name": "STARLINK-35728", "group": "last-30-days", "lat": -9.540339120750588, "lon": 22.23715469832907, "alt_km": 415.71620215432176, "timestamp": "2025-12-16T08:59:41.906578+00:00", "meta": {"OBJECT_NAME": "STARLINK-35728", "OBJECT_ID": "2025-265AE", "EPOCH": "2025-12-15T20:41:17.799648", "MEAN_MOTION": 15.50601173, "ECCENTRICITY": 4.478e-05, "INCLINATION": 42.9999, "RA_OF_ASC_NODE": 35.6282, "ARG_OF_PERICENTER": 237.2435, "MEAN_ANOMALY": 122.8382, "EPHEMERIS_TYPE": 0, "CLASSIFICATION_TYPE": "U", "NORAD_CAT_ID": 66544, "ELEMENT_SET_NO": 999, "REV_AT_EPOCH": 424, "BSTAR": 0.001442183, "MEAN_MOTION_DOT": 0.00085258, "MEAN_MOTION_DDOT": 0}, "tle": {"line1": "1 66544U 25265AE  25349.86201157  .00085258  00000+0  14422-2 0  9990", "line2": "2 66544  42.9999  35.6282 0000447 237.2435 122.8382 15.50601173  4241"}}, "geometry": {"type": "Point", "coordinates": [22.23715469832907, -9.540339120750588]}}]}